      2.10          N: GNSS NAV DATA                        RINEX VERSION / TYPE
fic2rin                                 02/22/2024 00:17:41 PGM / RUN BY / DATE
                                                            END OF HEADER
8  24  2 21  1 59 44.0 -.168025027961D-03 -.181898940355D-11  .000000000000D+00
     .710000000000D+02  .478750000000D+02  .443089885044D-08 -.100976695228D+01
     .245869159698D-05  .937144667841D-02  .937096774578D-05  .515359429741D+04
     .266384000000D+06  .197440385818D-06  .269574400257D+01 -.100582838058D-06
     .954787292917D+00  .192531250000D+03  .324595101489D+00 -.789854329175D-08
    -.219652006531D-09  .100000000000D+01  .230200000000D+04  .000000000000D+00
     .240000000000D+01  .000000000000D+00  .512227416039D-08  .710000000000D+02
     .259200000000D+06  .400000000000D+01
2  24  2 21  2  0  0.0 -.482224859297D-03  .591171556152D-11  .000000000000D+00
     .130000000000D+02  .855937500000D+02  .450661629009D-08 -.686401785995D+00
     .442750751972D-05  .161991284695D-01  .509805977345D-05  .515371038437D+04
     .266400000000D+06 -.212341547012D-06 -.259195103863D+01  .558793544769D-08
     .967723105072D+00  .291187500000D+03 -.123640849703D+01 -.836677708128D-08
     .353586156854D-09  .100000000000D+01  .230200000000D+04  .000000000000D+00
     .240000000000D+01  .000000000000D+00 -.176951289177D-07  .130000000000D+02
     .259200000000D+06  .400000000000D+01
1  24  2 21  2  0  0.0  .170409213752D-03  .159161572810D-11  .000000000000D+00
     .850000000000D+02  .871562500000D+02  .387194699642D-08  .295100368769D+01
     .433810055256D-05  .127505684504D-01  .404007732868D-05  .515400525665D+04
     .266400000000D+06  .558793544769D-07 -.248741320215D+01 -.180676579475D-06
     .990733362558D+00  .316312500000D+03  .998810263474D+00 -.766996234186D-08
     .228938107620D-09  .100000000000D+01  .230200000000D+04  .000000000000D+00
     .485000000000D+01  .630000000000D+02  .512227416039D-08  .850000000000D+02
     .259200000000D+06  .400000000000D+01
3  24  2 21  2  0  0.0  .206221360713D-03  .237605490838D-10  .000000000000D+00
     .900000000000D+01 -.734375000000D+02  .413802950840D-08  .206305462607D+01
    -.397674739361D-05  .512065703515D-02  .299513339996D-05  .515377566528D+04
     .266400000000D+06 -.726431608200D-07 -.145864734448D+01 -.119209289551D-06
     .982673279349D+00  .331437500000D+03  .106489020289D+01 -.801033366255D-08
    -.174292974288D-09  .100000000000D+01  .230200000000D+04  .000000000000D+00
     .240000000000D+01  .000000000000D+00  .186264514923D-08  .900000000000D+01
     .259200000000D+06  .400000000000D+01
15 24  2 22  0  0  0.0  .130158849061D-03  .397903932026D-11  .000000000000D+00
     .510000000000D+02 -.121687500000D+03  .474519765653D-08 -.297948586883D+01
    -.626966357231D-05  .154559630901D-01  .823289155960D-05  .515361682892D+04
     .345600000000D+06  .191852450371D-06 -.563825537620D+00 -.651925802231D-07
     .934809892824D+00  .205312500000D+03  .129126772751D+01 -.787782814316D-08
    -.900037490174D-10  .100000000000D+01  .230200000000D+04  .000000000000D+00
     .240000000000D+01  .000000000000D+00 -.102445483208D-07  .510000000000D+02
     .338400000000D+06  .400000000000D+01
9  24  2 22  0  0  0.0  .100106932223D-03  .128466126625D-10  .000000000000D+00
     .320000000000D+02 -.114218750000D+03  .430946522081D-08 -.157016790985D+01
    -.592507421970D-05  .276429241057D-02  .103246420622D-04  .515372771072D+04
     .345600000000D+06 -.428408384323D-07 -.438424818679D+00  .558793544769D-07
     .958177542661D+00  .178687500000D+03  .201224526193D+01 -.789497171440D-08
    -.396445084958D-10  .100000000000D+01  .230200000000D+04  .000000000000D+00
     .240000000000D+01  .000000000000D+00  .139698386192D-08  .320000000000D+02
     .338400000000D+06  .400000000000D+01
14 24  2 22  0  0  0.0  .331940595061D-03  .989075488178D-11  .000000000000D+00
     .910000000000D+02 -.975000000000D+01  .523950396066D-08  .735523772146D+00
    -.510364770889D-06  .401212775614D-02  .517442822456D-05  .515368093872D+04
     .345600000000D+06  .316649675369D-07  .170606847900D+01  .651925802231D-07
     .946001507251D+00  .271687500000D+03 -.296325801554D+01 -.834606193269D-08
    -.267153985179D-09  .100000000000D+01  .230200000000D+04  .000000000000D+00
     .240000000000D+01  .000000000000D+00 -.791624188423D-08  .910000000000D+02
     .338400000000D+06  .400000000000D+01
11 24  2 22  0  0  0.0 -.583705957979D-03 -.126192389871D-10  .000000000000D+00
     .174000000000D+03  .115718750000D+03  .441911264521D-08 -.281245635595D+01
     .607967376709D-05  .123962643556D-02  .491738319397D-05  .515366907310D+04
     .345600000000D+06 -.130385160446D-07 -.246124845295D+01 -.931322574615D-07
     .966282505271D+00  .285000000000D+03 -.246500439710D+01 -.815426822943D-08
     .238581366443D-09  .100000000000D+01  .230200000000D+04  .000000000000D+00
     .240000000000D+01  .000000000000D+00 -.838190317154D-08  .942000000000D+03
     .338400000000D+06  .400000000000D+01
31 24  2 22  0  0  0.0 -.227841082960D-03 -.113686837722D-12  .000000000000D+00
     .210000000000D+02  .243437500000D+02  .468555231492D-08  .575526993627D+00
     .143796205521D-05  .105620677350D-01  .819191336632D-05  .515368065071D+04
     .345600000000D+06 -.111758708954D-06  .654377967960D+00  .203028321266D-06
     .954485118411D+00  .219125000000D+03  .659305791418D+00 -.810640909305D-08
     .487877464912D-09  .100000000000D+01  .230200000000D+04  .000000000000D+00
     .240000000000D+01  .000000000000D+00 -.135041773319D-07  .210000000000D+02
     .338400000000D+06  .400000000000D+01
24 24  2 22  0  0  0.0 -.435526482761D-03 -.602540239925D-11  .000000000000D+00
     .260000000000D+02  .143750000000D+02  .493127683605D-08  .247300074389D+01
     .629574060440D-06  .151045824168D-01  .898353755474D-05  .515372760391D+04
     .345600000000D+06  .484287738800D-07  .537912075317D+00 -.286847352982D-06
     .934235064035D+00  .190093750000D+03  .968035370787D+00 -.792818738368D-08
     .584667210879D-09  .100000000000D+01  .230200000000D+04  .000000000000D+00
     .240000000000D+01  .000000000000D+00  .232830643654D-08  .260000000000D+02
     .338400000000D+06  .400000000000D+01
21 24  2 22  0  0  0.0  .134069472551D-03 -.136424205266D-11  .000000000000D+00
     .140000000000D+02  .135718750000D+03  .430089343519D-08 -.207672637379D+01
     .717118382454D-05  .253235563869D-01  .661797821522D-05  .515372647858D+04
     .345600000000D+06 -.523403286934D-06 -.259921082372D+01  .240281224251D-06
     .962020925427D+00  .262062500000D+03 -.624083139156D+00 -.797783230874D-08
     .291440711104D-09  .100000000000D+01  .230200000000D+04  .000000000000D+00
     .240000000000D+01  .000000000000D+00 -.102445483208D-07  .140000000000D+02
     .338400000000D+06  .400000000000D+01
17 24  2 22  0  0  0.0  .716221984476D-03 -.125055521494D-11  .000000000000D+00
     .170000000000D+02  .562187500000D+02  .406909806570D-08 -.197342428763D+01
     .309385359287D-05  .135228203144D-01  .114310532808D-04  .515368071747D+04
     .345600000000D+06  .391155481339D-07  .278829697485D+01  .309199094772D-06
     .970557861414D+00  .163312500000D+03 -.133437145301D+01 -.753174229873D-08
    -.361800784741D-09  .100000000000D+01  .230200000000D+04  .000000000000D+00
     .240000000000D+01  .000000000000D+00 -.111758708954D-07  .170000000000D+02
     .338400000000D+06  .400000000000D+01
19 24  2 22  0  0  0.0  .443966127932D-03  .534328137292D-11  .000000000000D+00
     .900000000000D+01  .505312500000D+02  .417303096635D-08  .626056040718D-01
     .258535146713D-05  .951049081050D-02  .113658607006D-04  .515369119644D+04
     .345600000000D+06  .279396772385D-07  .283265289971D+01 -.122934579849D-06
     .969745181162D+00  .167750000000D+03  .248400212192D+01 -.783925510787D-08
    -.314298806093D-09  .100000000000D+01  .230200000000D+04  .000000000000D+00
     .240000000000D+01  .000000000000D+00 -.153668224812D-07  .900000000000D+01
     .338400000000D+06  .400000000000D+01
20 24  2 22  0  0  0.0  .386611558497D-03 -.147792889038D-11  .000000000000D+00
     .390000000000D+02 -.236875000000D+02  .492841957417D-08  .280355348124D+01
    -.138022005558D-05  .383942341432D-02  .335276126862D-06  .515372468758D+04
     .345600000000D+06 -.577419996262D-07 -.163665208865D+01  .130385160446D-07
     .952136690166D+00  .367500000000D+03 -.262355334022D+01 -.852499795753D-08
    -.143220251413D-09  .100000000000D+01  .230200000000D+04  .000000000000D+00
     .240000000000D+01  .000000000000D+00 -.838190317154D-08  .390000000000D+02
     .338400000000D+06  .400000000000D+01
32 24  2 22  0  0  0.0 -.612834002823D-03 -.181898940355D-11  .000000000000D+00
     .102000000000D+03 -.920625000000D+02  .425732019162D-08 -.126245685940D+01
    -.479631125927D-05  .756848137826D-02  .975839793682D-05  .515364244843D+04
     .345600000000D+06  .216066837311D-06 -.424177124497D+00  .104308128357D-06
     .961662378835D+00  .192562500000D+03 -.217318251684D+01 -.784282668521D-08
    -.914323799542D-10  .100000000000D+01  .230200000000D+04  .000000000000D+00
     .240000000000D+01  .000000000000D+00  .465661287308D-09  .102000000000D+03
     .338400000000D+06  .400000000000D+01
27 24  2 22  0  0  0.0 -.606663525105D-05 -.318323145621D-11  .000000000000D+00
     .950000000000D+02  .380937500000D+02  .428553565262D-08 -.191276732116D+01
     .176765024662D-05  .124226396438D-01  .999309122562D-05  .515367615891D+04
     .345600000000D+06  .160187482834D-06  .272075072191D+01 -.113621354103D-06
     .963761228866D+00  .186718750000D+03  .762163166584D+00 -.762674625602D-08
    -.212151694112D-09  .100000000000D+01  .230200000000D+04  .000000000000D+00
     .240000000000D+01  .000000000000D+00  .186264514923D-08  .950000000000D+02
     .338400000000D+06  .400000000000D+01
